[{"OBJECT_NAME":"ONEWEB-0234","OBJECT_ID":"2021-045S","EPOCH":"2026-03-22T23:43:24.599424","MEAN_MOTION":13.15545984,"ECCENTRICITY":0.00019278,"INCLINATION":87.8924,"RA_OF_ASC_NODE":276.3832,"ARG_OF_PERICENTER":66.3087,"MEAN_ANOMALY":293.8245,"EPHEMERIS_TYPE":0,"CLASSIFICATION_TYPE":"U","NORAD_CAT_ID":48783,"ELEMENT_SET_NO":999,"REV_AT_EPOCH":23314,"BSTAR":1.703217e-6,"MEAN_MOTION_DOT":1.3e-7,"MEAN_MOTION_DDOT":0},{"OBJECT_NAME":"ONEWEB-0238","OBJECT_ID":"2021-045T","EPOCH":"2026-03-22T23:43:49.885248","MEAN_MOTION":13.15548795,"ECCENTRICITY":0.00017772,"INCLINATION":87.8926,"RA_OF_ASC_NODE":276.3768,"ARG_OF_PERICENTER":78.1985,"MEAN_ANOMALY":281.9345,"EPHEMERIS_TYPE":0,"CLASSIFICATION_TYPE":"U","NORAD_CAT_ID":48784,"ELEMENT_SET_NO":999,"REV_AT_EPOCH":23304,"BSTAR":0.00053915448,"MEAN_MOTION_DOT":2.16e-6,"MEAN_MOTION_DDOT":0},{"OBJECT_NAME":"ONEWEB-0240","OBJECT_ID":"2021-045U","EPOCH":"2026-03-23T00:14:26.019168","MEAN_MOTION":13.155501,"ECCENTRICITY":0.00020562,"INCLINATION":87.8943,"RA_OF_ASC_NODE":276.377,"ARG_OF_PERICENTER":90.3929,"MEAN_ANOMALY":269.7437,"EPHEMERIS_TYPE":0,"CLASSIFICATION_TYPE":"U","NORAD_CAT_ID":48785,"ELEMENT_SET_NO":999,"REV_AT_EPOCH":23307,"BSTAR":-7.8931066e-5,"MEAN_MOTION_DOT":-1.7e-7,"MEAN_MOTION_DDOT":0},{"OBJECT_NAME":"ONEWEB-0246","OBJECT_ID":"2021-045V","EPOCH":"2026-03-23T05:35:00.390624","MEAN_MOTION":13.15548732,"ECCENTRICITY":0.00017239,"INCLINATION":87.8937,"RA_OF_ASC_NODE":276.3406,"ARG_OF_PERICENTER":96.25,"MEAN_ANOMALY":263.8826,"EPHEMERIS_TYPE":0,"CLASSIFICATION_TYPE":"U","NORAD_CAT_ID":48786,"ELEMENT_SET_NO":999,"REV_AT_EPOCH":23297,"BSTAR":-3.5900054e-5,"MEAN_MOTION_DOT":-1.0e-8,"MEAN_MOTION_DDOT":0},{"OBJECT_NAME":"ONEWEB-0210","OBJECT_ID":"2021-045W","EPOCH":"2026-03-22T23:29:55.721760","MEAN_MOTION":13.15549123,"ECCENTRICITY":0.0002137,"INCLINATION":87.8935,"RA_OF_ASC_NODE":276.3879,"ARG_OF_PERICENTER":117.3715,"MEAN_ANOMALY":242.7633,"EPHEMERIS_TYPE":0,"CLASSIFICATION_TYPE":"U","NORAD_CAT_ID":48787,"ELEMENT_SET_NO":999,"REV_AT_EPOCH":23298,"BSTAR":0.00030630987,"MEAN_MOTION_DOT":1.28e-6,"MEAN_MOTION_DDOT":0},{"OBJECT_NAME":"ONEWEB-0214","OBJECT_ID":"2021-045X","EPOCH":"2026-03-22T23:42:29.276640","MEAN_MOTION":13.15548188,"ECCENTRICITY":0.00016885,"INCLINATION":87.8938,"RA_OF_ASC_NODE":276.3823,"ARG_OF_PERICENTER":107.1219,"MEAN_ANOMALY":253.0097,"EPHEMERIS_TYPE":0,"CLASSIFICATION_TYPE":"U","NORAD_CAT_ID":48788,"ELEMENT_SET_NO":999,"REV_AT_EPOCH":23295,"BSTAR":0.00011074823,"MEAN_MOTION_DOT":5.5e-7,"MEAN_MOTION_DDOT":0},{"OBJECT_NAME":"ONEWEB-0221","OBJECT_ID":"2021-045Y","EPOCH":"2026-03-22T23:52:44.816160","MEAN_MOTION":13.15549003,"ECCENTRICITY":0.00019112,"INCLINATION":87.8937,"RA_OF_ASC_NODE":276.3907,"ARG_OF_PERICENTER":94.3848,"MEAN_ANOMALY":265.7501,"EPHEMERIS_TYPE":0,"CLASSIFICATION_TYPE":"U","NORAD_CAT_ID":48789,"ELEMENT_SET_NO":999,"REV_AT_EPOCH":23304,"BSTAR":0.00031909846,"MEAN_MOTION_DOT":1.33e-6,"MEAN_MOTION_DDOT":0},{"OBJECT_NAME":"ONEWEB-0213","OBJECT_ID":"2021-045Z","EPOCH":"2026-03-22T23:36:45.781344","MEAN_MOTION":13.15549067,"ECCENTRICITY":0.00019056,"INCLINATION":87.8937,"RA_OF_ASC_NODE":276.3968,"ARG_OF_PERICENTER":99.152,"MEAN_ANOMALY":260.9826,"EPHEMERIS_TYPE":0,"CLASSIFICATION_TYPE":"U","NORAD_CAT_ID":48790,"ELEMENT_SET_NO":999,"REV_AT_EPOCH":23310,"BSTAR":0.00033728758,"MEAN_MOTION_DOT":1.4e-6,"MEAN_MOTION_DDOT":0},{"OBJECT_NAME":"ONEWEB-0212","OBJECT_ID":"2021-045AA","EPOCH":"2026-03-23T00:53:12.757344","MEAN_MOTION":13.15548408,"ECCENTRICITY":0.00016967,"INCLINATION":87.8935,"RA_OF_ASC_NODE":276.3805,"ARG_OF_PERICENTER":90.2868,"MEAN_ANOMALY":269.8457,"EPHEMERIS_TYPE":0,"CLASSIFICATION_TYPE":"U","NORAD_CAT_ID":48791,"ELEMENT_SET_NO":999,"REV_AT_EPOCH":23310,"BSTAR":-0.00030296093,"MEAN_MOTION_DOT":-1.01e-6,"MEAN_MOTION_DDOT":0},{"OBJECT_NAME":"ONEWEB-0227","OBJECT_ID":"2021-045AB","EPOCH":"2026-03-22T19:23:30.461280","MEAN_MOTION":13.15548751,"ECCENTRICITY":0.00017749,"INCLINATION":87.8933,"RA_OF_ASC_NODE":276.4286,"ARG_OF_PERICENTER":91.7614,"MEAN_ANOMALY":268.372,"EPHEMERIS_TYPE":0,"CLASSIFICATION_TYPE":"U","NORAD_CAT_ID":48792,"ELEMENT_SET_NO":999,"REV_AT_EPOCH":23302,"BSTAR":-0.0001343357,"MEAN_MOTION_DOT":-3.8e-7,"MEAN_MOTION_DDOT":0},{"OBJECT_NAME":"ONEWEB-0226","OBJECT_ID":"2021-045AC","EPOCH":"2026-03-23T00:42:56.326176","MEAN_MOTION":13.15548972,"ECCENTRICITY":0.00018609,"INCLINATION":87.8926,"RA_OF_ASC_NODE":276.3923,"ARG_OF_PERICENTER":101.0816,"MEAN_ANOMALY":259.0523,"EPHEMERIS_TYPE":0,"CLASSIFICATION_TYPE":"U","NORAD_CAT_ID":48793,"ELEMENT_SET_NO":999,"REV_AT_EPOCH":23302,"BSTAR":-0.00033050407,"MEAN_MOTION_DOT":-1.12e-6,"MEAN_MOTION_DDOT":0},{"OBJECT_NAME":"ONEWEB-0224","OBJECT_ID":"2021-045AD","EPOCH":"2026-03-22T23:50:28.088160","MEAN_MOTION":13.15550786,"ECCENTRICITY":0.00024058,"INCLINATION":87.8927,"RA_OF_ASC_NODE":276.4357,"ARG_OF_PERICENTER":77.0488,"MEAN_ANOMALY":283.091,"EPHEMERIS_TYPE":0,"CLASSIFICATION_TYPE":"U","NORAD_CAT_ID":48794,"ELEMENT_SET_NO":999,"REV_AT_EPOCH":23294,"BSTAR":0.00033741311,"MEAN_MOTION_DOT":1.4e-6,"MEAN_MOTION_DDOT":0},{"OBJECT_NAME":"ONEWEB-0233","OBJECT_ID":"2021-045AE","EPOCH":"2026-03-23T05:25:42.560256","MEAN_MOTION":13.15530382,"ECCENTRICITY":0.00018806,"INCLINATION":87.8926,"RA_OF_ASC_NODE":276.3976,"ARG_OF_PERICENTER":93.5518,"MEAN_ANOMALY":266.5828,"EPHEMERIS_TYPE":0,"CLASSIFICATION_TYPE":"U","NORAD_CAT_ID":48795,"ELEMENT_SET_NO":999,"REV_AT_EPOCH":23299,"BSTAR":-0.0060954232,"MEAN_MOTION_DOT":-2.281e-5,"MEAN_MOTION_DDOT":0},{"OBJECT_NAME":"ONEWEB-0190","OBJECT_ID":"2021-045AF","EPOCH":"2026-03-22T23:39:02.594880","MEAN_MOTION":13.15549493,"ECCENTRICITY":0.00023412,"INCLINATION":87.8925,"RA_OF_ASC_NODE":276.4073,"ARG_OF_PERICENTER":103.9166,"MEAN_ANOMALY":256.2225,"EPHEMERIS_TYPE":0,"CLASSIFICATION_TYPE":"U","NORAD_CAT_ID":48796,"ELEMENT_SET_NO":999,"REV_AT_EPOCH":23303,"BSTAR":0.00027709336,"MEAN_MOTION_DOT":1.17e-6,"MEAN_MOTION_DDOT":0},{"OBJECT_NAME":"ONEWEB-0236","OBJECT_ID":"2021-045AG","EPOCH":"2026-03-23T05:32:43.013760","MEAN_MOTION":13.15549526,"ECCENTRICITY":0.0001634,"INCLINATION":87.8924,"RA_OF_ASC_NODE":276.3692,"ARG_OF_PERICENTER":87.5298,"MEAN_ANOMALY":272.6019,"EPHEMERIS_TYPE":0,"CLASSIFICATION_TYPE":"U","NORAD_CAT_ID":48797,"ELEMENT_SET_NO":999,"REV_AT_EPOCH":23295,"BSTAR":0.00017303631,"MEAN_MOTION_DOT":7.8e-7,"MEAN_MOTION_DDOT":0},{"OBJECT_NAME":"ONEWEB-0248","OBJECT_ID":"2021-045AH","EPOCH":"2026-03-23T05:50:57.826176","MEAN_MOTION":13.1554721,"ECCENTRICITY":0.0002199,"INCLINATION":87.8937,"RA_OF_ASC_NODE":276.3413,"ARG_OF_PERICENTER":91.9576,"MEAN_ANOMALY":268.1806,"EPHEMERIS_TYPE":0,"CLASSIFICATION_TYPE":"U","NORAD_CAT_ID":48798,"ELEMENT_SET_NO":999,"REV_AT_EPOCH":23311,"BSTAR":-0.00015524783,"MEAN_MOTION_DOT":-4.6e-7,"MEAN_MOTION_DDOT":0}]
