ONEWEB-0234             
1 48783U 21045S   26081.98847916  .00000013  00000+0  17032-5 0  9992
2 48783  87.8924 276.3832 0001927  66.3087 293.8245 13.15545984233141
ONEWEB-0238             
1 48784U 21045T   26081.98877182  .00000216  00000+0  53915-3 0  9994
2 48784  87.8926 276.3768 0001777  78.1985 281.9345 13.15548795233044
ONEWEB-0240             
1 48785U 21045U   26082.01002337 -.00000017  00000+0 -78931-4 0  9999
2 48785  87.8943 276.3770 0002056  90.3929 269.7437 13.15550100233074
ONEWEB-0246             
1 48786U 21045V   26082.23264341 -.00000001  00000+0 -35900-4 0  9991
2 48786  87.8937 276.3406 0001723  96.2500 263.8826 13.15548732232977
ONEWEB-0210             
1 48787U 21045W   26081.97911715  .00000128  00000+0  30631-3 0  9999
2 48787  87.8935 276.3879 0002137 117.3715 242.7633 13.15549123232981
ONEWEB-0214             
1 48788U 21045X   26081.98783885  .00000055  00000+0  11075-3 0  9996
2 48788  87.8938 276.3823 0001688 107.1219 253.0097 13.15548188232956
ONEWEB-0221             
1 48789U 21045Y   26081.99496315  .00000133  00000+0  31910-3 0  9994
2 48789  87.8937 276.3907 0001911  94.3848 265.7501 13.15549003233041
ONEWEB-0213             
1 48790U 21045Z   26081.98386321  .00000140  00000+0  33729-3 0  9998
2 48790  87.8937 276.3968 0001905  99.1520 260.9826 13.15549067233107
ONEWEB-0212             
1 48791U 21045AA  26082.03695321 -.00000101  00000+0 -30296-3 0  9994
2 48791  87.8935 276.3805 0001696  90.2868 269.8457 13.15548408233106
ONEWEB-0227             
1 48792U 21045AB  26081.80799145 -.00000038  00000+0 -13434-3 0  9992
2 48792  87.8933 276.4286 0001774  91.7614 268.3720 13.15548751233020
ONEWEB-0226             
1 48793U 21045AC  26082.02981859 -.00000112  00000+0 -33050-3 0  9992
2 48793  87.8926 276.3923 0001860 101.0816 259.0523 13.15548972233028
ONEWEB-0224             
1 48794U 21045AD  26081.99338065  .00000140  00000+0  33741-3 0  9999
2 48794  87.8927 276.4357 0002405  77.0488 283.0910 13.15550786232948
ONEWEB-0233             
1 48795U 21045AE  26082.22618704 -.00002281  00000+0 -60954-2 0  9993
2 48795  87.8926 276.3976 0001880  93.5518 266.5828 13.15530382232996
ONEWEB-0190             
1 48796U 21045AF  26081.98544670  .00000117  00000+0  27709-3 0  9992
2 48796  87.8925 276.4073 0002341 103.9166 256.2225 13.15549493233039
ONEWEB-0236             
1 48797U 21045AG  26082.23105340  .00000078  00000+0  17304-3 0  9995
2 48797  87.8924 276.3692 0001634  87.5298 272.6019 13.15549526232952
ONEWEB-0248             
1 48798U 21045AH  26082.24372484 -.00000046  00000+0 -15525-3 0  9992
2 48798  87.8937 276.3413 0002199  91.9576 268.1806 13.15547210233114
